H1 CPF 01  gfz 2022 11 08 01  8121 tandemx   
H2 1003001  6202 36605    2022 11 08 00 59 42 2022 11 13 00 00 42   120 1 1  0 0 0
H9
10 0 59892  16542.000000  0    1290847.628   -442172.045  -6759056.455
10 0 59892  16662.000000  0     443600.546   -787423.944  -6835911.058
10 0 59892  16782.000000  0    -417116.718  -1104098.258  -6793576.211
10 0 59892  16902.000000  0   -1275853.370  -1386610.690  -6632777.921
10 0 59892  17022.000000  0   -2117094.607  -1630232.232  -6356279.753
10 0 59892  17142.000000  0   -2925535.878  -1831167.119  -5968839.685
10 0 59892  17262.000000  0   -3686355.313  -1986611.344  -5477137.183
10 0 59892  17382.000000  0   -4385484.777  -2094792.171  -4889670.572
10 0 59892  17502.000000  0   -5009873.091  -2154986.325  -4216621.304
10 0 59892  17622.000000  0   -5547735.396  -2167516.750  -3469688.316
10 0 59892  17742.000000  0   -5988784.914  -2133727.820  -2661892.965
10 0 59892  17862.000000  0   -6324440.265  -2055938.517  -1807356.629
10 0 59892  17982.000000  0   -6548003.658  -1937374.705   -921055.169
10 0 59892  18102.000000  0   -6654804.549  -1782081.650    -18553.693
10 0 59892  18222.000000  0   -6642304.769  -1594818.581    884272.733
10 0 59892  18342.000000  0   -6510161.121  -1380937.491   1771526.871
10 0 59892  18462.000000  0   -6260243.320  -1146249.938   2627578.582
10 0 59892  18582.000000  0   -5896607.078   -896885.148   3437348.763
10 0 59892  18702.000000  0   -5425423.477   -639142.318   4186582.648
10 0 59892  18822.000000  0   -4854864.209   -379341.841   4862105.190
10 0 59892  18942.000000  0   -4194949.953   -123679.379   5452052.128
10 0 59892  19062.000000  0   -3457365.895    121914.661   5946076.718
10 0 59892  19182.000000  0   -2655245.505    351906.575   6335527.540
10 0 59892  19302.000000  0   -1802929.429    561278.424   6613594.035
10 0 59892  19422.000000  0    -915704.148    745632.992   6775420.031
10 0 59892  19542.000000  0      -9525.579    901283.479   6818182.426
10 0 59892  19662.000000  0     899267.497   1025325.505   6741136.735
10 0 59892  19782.000000  0    1794246.894   1115691.173   6545629.334
10 0 59892  19902.000000  0    2659191.068   1171183.834   6235075.349
10 0 59892  20022.000000  0    3478379.349   1191492.859   5814903.455
10 0 59892  20142.000000  0    4236880.520   1177188.408   5292465.774
10 0 59892  20262.000000  0    4920828.062   1129696.400   4676915.149
10 0 59892  20382.000000  0    5517681.345   1051254.101   3979052.297
10 0 59892  20502.000000  0    6016466.089    944847.269   3211139.229
10 0 59892  20622.000000  0    6407985.439    814129.681   2386683.451
10 0 59892  20742.000000  0    6684998.515    663326.433   1520199.443
10 0 59892  20862.000000  0    6842363.432    497124.479    626947.835
10 0 59892  20982.000000  0    6877137.722    320551.776   -277340.332
10 0 59892  21102.000000  0    6788635.668    138848.627  -1176749.941
10 0 59892  21222.000000  0    6578438.789    -42665.178  -2055470.942
10 0 59892  21342.000000  0    6250360.640   -218724.500  -2898083.463
10 0 59892  21462.000000  0    5810368.203   -384250.754  -3689833.128
10 0 59892  21582.000000  0    5266461.342   -534477.855  -4416891.407
10 0 59892  21702.000000  0    4628513.763   -665068.718  -5066594.736
10 0 59892  21822.000000  0    3908082.177   -772219.942  -5627658.423
10 0 59892  21942.000000  0    3118187.775   -852753.843  -6090364.256
10 0 59892  22062.000000  0    2273073.767   -904195.056  -6446718.279
10 0 59892  22182.000000  0    1387945.614   -924829.317  -6690576.931
10 0 59892  22302.000000  0     478699.069   -913745.932  -6817742.596
10 0 59892  22422.000000  0    -438361.467   -870861.734  -6826028.357
10 0 59892  22542.000000  0   -1346808.546   -796926.551  -6715290.891
10 0 59892  22662.000000  0   -2230379.230   -693510.367  -6487433.189
10 0 59892  22782.000000  0   -3073259.717   -562972.003  -6146374.141
10 0 59892  22902.000000  0   -3860361.882   -408410.308  -5697988.724
10 0 59892  23022.000000  0   -4577592.629   -233597.993  -5150018.307
10 0 59892  23142.000000  0   -5212108.477    -42899.146  -4511947.766
10 0 59892  23262.000000  0   -5752551.690    158827.696  -3794853.602
10 0 59892  23382.000000  0   -6189264.495    366340.683  -3011221.390
10 0 59892  23502.000000  0   -6514474.078    574136.716  -2174734.900
10 0 59892  23622.000000  0   -6722444.104    776582.933  -1300039.982
10 0 59892  23742.000000  0   -6809589.678    968053.053   -402486.866
10 0 59892  23862.000000  0   -6774548.532   1143066.017    502146.118
10 0 59892  23982.000000  0   -6618207.244   1296423.204   1397936.282
10 0 59892  24102.000000  0   -6343684.375   1423341.159   2269105.205
10 0 59892  24222.000000  0   -5956267.920   1519575.745   3100306.235
10 0 59892  24342.000000  0   -5463308.186   1581534.244   3876903.285
10 0 59892  24462.000000  0   -4874069.579   1606372.745   4585233.680
10 0 59892  24582.000000  0   -4199546.814   1592076.703   5212850.071
10 0 59892  24702.000000  0   -3452250.772   1537522.875   5748737.891
10 0 59892  24822.000000  0   -2645968.631   1442521.424   6183506.100
10 0 59892  24942.000000  0   -1795501.639   1307837.788   6509547.916
10 0 59892  25062.000000  0    -916387.127   1135192.819   6721166.994
10 0 59892  25182.000000  0     -24612.485    927242.250   6814669.862
10 0 59892  25302.000000  0     863675.112    687535.696   6788425.873
10 0 59892  25422.000000  0    1732459.883    420455.999   6642893.706
10 0 59892  25542.000000  0    2566144.919    131139.792   6380614.097
10 0 59892  25662.000000  0    3349832.276   -174620.018   6006169.528
10 0 59892  25782.000000  0    4069591.701   -490488.330   5526108.890
10 0 59892  25902.000000  0    4712712.108   -809716.456   4948838.582
10 0 59892  26022.000000  0    5267932.570  -1125283.125   4284481.497
10 0 59892  26142.000000  0    5725647.763  -1430045.028   3544703.886
10 0 59892  26262.000000  0    6078083.871  -1716894.268   2742512.771
10 0 59892  26382.000000  0    6319439.810  -1978918.497   1892026.352
10 0 59892  26502.000000  0    6445990.253  -2209560.242   1008222.158
10 0 59892  26622.000000  0    6456147.896  -2402771.546    106666.959
10 0 59892  26742.000000  0    6350482.261  -2553159.580   -796766.075
10 0 59892  26862.000000  0    6131694.944  -2656119.167  -1686186.155
10 0 59892  26982.000000  0    5804550.785  -2707949.650  -2545972.922
10 0 59892  27102.000000  0    5375768.612  -2705951.871  -3361056.617
10 0 59892  27222.000000  0    4853875.034  -2648504.015  -4117184.775
10 0 59892  27342.000000  0    4249025.898  -2535115.348  -4801171.022
10 0 59892  27462.000000  0    3572798.286  -2366456.070  -5401121.360
10 0 59892  27582.000000  0    2837959.838  -2144362.781  -5906632.085
10 0 59892  27702.000000  0    2058223.674  -1871820.961  -6308959.290
10 0 59892  27822.000000  0    1247990.722  -1552924.591  -6601160.704
10 0 59892  27942.000000  0     422083.553  -1192812.986  -6778204.378
10 0 59892  28062.000000  0    -404520.951   -797588.076  -6837045.662
10 0 59892  28182.000000  0   -1216957.097   -374212.533  -6776673.285
10 0 59892  28302.000000  0   -2000731.551     69610.049  -6598124.953
10 0 59892  28422.000000  0   -2741975.860    525571.768  -6304470.466
10 0 59892  28542.000000  0   -3427686.278    984911.159  -5900764.789
10 0 59892  28662.000000  0   -4045949.967   1438576.855  -5393971.229
10 0 59892  28782.000000  0   -4586154.337   1877401.450  -4792852.939
10 0 59892  28902.000000  0   -5039174.906   2292284.629  -4107833.119
10 0 59892  29022.000000  0   -5397537.033   2674379.830  -3350823.712
10 0 59892  29142.000000  0   -5655548.809   3015280.832  -2535026.735
10 0 59892  29262.000000  0   -5809402.534   3307205.346  -1674709.060
10 0 59892  29382.000000  0   -5857240.194   3543170.853   -784953.356
10 0 59892  29502.000000  0   -5799180.217   3717157.429    118609.632
10 0 59892  29622.000000  0   -5637305.740   3824253.646   1020082.551
10 0 59892  29742.000000  0   -5375611.151   3860780.367   1903590.820
10 0 59892  29862.000000  0   -5019909.247   3824389.861   2753570.956
10 0 59892  29982.000000  0   -4577703.501   3714137.977   3555052.485
10 0 59892  30102.000000  0   -4058026.694   3530527.104   4293928.726
10 0 59892  30222.000000  0   -3471250.977   3275518.357   4957208.202
10 0 59892  30342.000000  0   -2828875.107   2952515.198   5533244.024
10 0 59892  30462.000000  0   -2143292.169   2566317.112   6011936.324
10 0 59892  30582.000000  0   -1427545.049   2123045.223   6384905.101
10 0 59892  30702.000000  0    -695073.662   1630041.467   6645629.950
10 0 59892  30822.000000  0      40537.829   1095744.485   6789556.961
10 0 59892  30942.000000  0     765812.676    529543.652   6814173.740
10 0 59892  31062.000000  0    1467627.632    -58385.823   6719050.060
10 0 59892  31182.000000  0    2133449.288   -657264.944   6505845.424
10 0 59892  31302.000000  0    2751557.496  -1255908.126   6178282.492
10 0 59892  31422.000000  0    3311253.175  -1842931.191   5742086.979
10 0 59892  31542.000000  0    3803047.058  -2406968.394   5204893.023
10 0 59892  31662.000000  0    4218824.852  -2936893.111   4576115.148
10 0 59892  31782.000000  0    4551986.578  -3422039.932   3866788.974
10 0 59892  31902.000000  0    4797557.386  -3852422.956   3089380.947
10 0 59892  32022.000000  0    4952267.345  -4218944.808   2257569.427
10 0 59892  32142.000000  0    5014596.236  -4513590.884   1386000.672
10 0 59892  32262.000000  0    4984782.739  -4729604.837    490025.887
10 0 59892  32382.000000  0    4864798.201  -4861641.005   -414576.352
10 0 59892  32502.000000  0    4658285.190  -4905888.812  -1311886.564
10 0 59892  32622.000000  0    4370462.263  -4860165.907  -2186133.607
10 0 59892  32742.000000  0    4007997.288  -4723978.164  -3021979.084
10 0 59892  32862.000000  0    3578853.109  -4498545.157  -3804791.123
10 0 59892  32982.000000  0    3092110.477  -4186791.377  -4520901.811
99
